[{"OBJECT_NAME":"STARLINK-36087","OBJECT_ID":"2025-281G","EPOCH":"2026-03-09T03:15:47.016576","MEAN_MOTION":15.27574962,"ECCENTRICITY":0.00016866,"INCLINATION":43.0031,"RA_OF_ASC_NODE":346.3599,"ARG_OF_PERICENTER":266.0097,"MEAN_ANOMALY":94.0562,"EPHEMERIS_TYPE":0,"CLASSIFICATION_TYPE":"U","NORAD_CAT_ID":66854,"ELEMENT_SET_NO":999,"REV_AT_EPOCH":1610,"BSTAR":0.0012655263,"MEAN_MOTION_DOT":0.00034721,"MEAN_MOTION_DDOT":0},{"OBJECT_NAME":"ARIANE 5 R\/B","OBJECT_ID":"2014-078C","EPOCH":"2026-03-09T21:54:00.740448","MEAN_MOTION":2.93558038,"ECCENTRICITY":0.67956113,"INCLINATION":6.4159,"RA_OF_ASC_NODE":49.1813,"ARG_OF_PERICENTER":86.9674,"MEAN_ANOMALY":342.6933,"EPHEMERIS_TYPE":0,"CLASSIFICATION_TYPE":"U","NORAD_CAT_ID":40334,"ELEMENT_SET_NO":999,"REV_AT_EPOCH":10431,"BSTAR":0.0011623512,"MEAN_MOTION_DOT":0.00010761,"MEAN_MOTION_DDOT":0}]
